GUOWANG_L_00004002-26
1 55740U 22159VZ  26070.40776620  .00000000  00000+0  00000-0 0  9996
2 55740  30.0000   7.5000 0000000   0.0000 250.8333 13.30467610    14
GUOWANG_L_00004002-27
1 55741U 22640RC  26070.40776620  .00000000  00000+0  00000-0 0  9992
2 55741  30.0000   7.5000 0000000   0.0000 260.8333 13.30467610    16
GUOWANG_L_00004002-28
1 55742U 25881J   26070.40776620  .00000000  00000+0  00000-0 0  9993
2 55742  30.0000   7.5000 0000000   0.0000 270.8333 13.30467610    18
GUOWANG_L_00004002-29
1 55743U 26162BR  26070.40776620  .00000000  00000+0  00000-0 0  9997
2 55743  30.0000   7.5000 0000000   0.0000 280.8333 13.30467610    10
GUOWANG_L_00004002-30
1 55744U 25304AW  26070.40776620  .00000000  00000+0  00000-0 0  9995
2 55744  30.0000   7.5000 0000000   0.0000 290.8333 13.30467610    12
GUOWANG_L_00004002-31
1 55745U 24072UR  26070.40776620  .00000000  00000+0  00000-0 0  9997
2 55745  30.0000   7.5000 0000000   0.0000 300.8333 13.30467610    15
GUOWANG_L_00004002-32
1 55746U 23161US  26070.40776620  .00000000  00000+0  00000-0 0  9996
2 55746  30.0000   7.5000 0000000   0.0000 310.8333 13.30467610    17
GUOWANG_L_00004002-33
1 55747U 22102QA  26070.40776620  .00000000  00000+0  00000-0 0  9991
2 55747  30.0000   7.5000 0000000   0.0000 320.8333 13.30467610    19
GUOWANG_L_00004002-34
1 55748U 26701JH  26070.40776620  .00000000  00000+0  00000-0 0  9991
2 55748  30.0000   7.5000 0000000   0.0000 330.8333 13.30467610    11
GUOWANG_L_00004002-35
1 55749U 26492DU  26070.40776620  .00000000  00000+0  00000-0 0  9999
2 55749  30.0000   7.5000 0000000   0.0000 340.8333 13.30467610    13
GUOWANG_L_00004002-36
1 55750U 22881PX  26070.40776620  .00000000  00000+0  00000-0 0  9999
2 55750  30.0000   7.5000 0000000   0.0000 350.8333 13.30467610    16
GUOWANG_L_00004003-01
1 55751U 25129SC  26070.40776620  .00000000  00000+0  00000-0 0  9998
2 55751  30.0000  15.0000 0000000   0.0000   1.6667 13.30467610    12
GUOWANG_L_00004003-02
1 55752U 22245VB  26070.40776620  .00000000  00000+0  00000-0 0  9995
2 55752  30.0000  15.0000 0000000   0.0000  11.6667 13.30467610    14
GUOWANG_L_00004003-03
1 55753U 25444AY  26070.40776620  .00000000  00000+0  00000-0 0  9990
2 55753  30.0000  15.0000 0000000   0.0000  21.6667 13.30467610    16
GUOWANG_L_00004003-04
1 55754U 24641BK  26070.40776620  .00000000  00000+0  00000-0 0  9999
2 55754  30.0000  15.0000 0000000   0.0000  31.6667 13.30467610    18
GUOWANG_L_00004003-05
1 55755U 23101EN  26070.40776620  .00000000  00000+0  00000-0 0  9990
2 55755  30.0000  15.0000 0000000   0.0000  41.6667 13.30467610    10
GUOWANG_L_00004003-06
1 55756U 22025FY  26070.40776620  .00000000  00000+0  00000-0 0  9995
2 55756  30.0000  15.0000 0000000   0.0000  51.6667 13.30467610    12
GUOWANG_L_00004003-07
1 55757U 23658UK  26070.40776620  .00000000  00000+0  00000-0 0  9999
2 55757  30.0000  15.0000 0000000   0.0000  61.6667 13.30467610    14
GUOWANG_L_00004003-08
1 55758U 22642RX  26070.40776620  .00000000  00000+0  00000-0 0  9992
2 55758  30.0000  15.0000 0000000   0.0000  71.6667 13.30467610    16
GUOWANG_L_00004003-09
1 55759U 25620XI  26070.40776620  .00000000  00000+0  00000-0 0  9992
2 55759  30.0000  15.0000 0000000   0.0000  81.6667 13.30467610    18
GUOWANG_L_00004003-10
1 55760U 25818HY  26070.40776620  .00000000  00000+0  00000-0 0  9993
2 55760  30.0000  15.0000 0000000   0.0000  91.6667 13.30467610    11
GUOWANG_L_00004003-11
1 55761U 23666SO  26070.40776620  .00000000  00000+0  00000-0 0  9993
2 55761  30.0000  15.0000 0000000   0.0000 101.6667 13.30467610    14
GUOWANG_L_00004003-12
1 55762U 23442VP  26070.40776620  .00000000  00000+0  00000-0 0  9996
2 55762  30.0000  15.0000 0000000   0.0000 111.6667 13.30467610    16
GUOWANG_L_00004003-13
1 55763U 23016EA  26070.40776620  .00000000  00000+0  00000-0 0  9994
2 55763  30.0000  15.0000 0000000   0.0000 121.6667 13.30467610    18
GUOWANG_L_00004003-14
1 55764U 22532VQ  26070.40776620  .00000000  00000+0  00000-0 0  9997
2 55764  30.0000  15.0000 0000000   0.0000 131.6667 13.30467610    10
GUOWANG_L_00004003-15
1 55765U 26658DV  26070.40776620  .00000000  00000+0  00000-0 0  9991
2 55765  30.0000  15.0000 0000000   0.0000 141.6667 13.30467610    12
GUOWANG_L_00004003-16
1 55766U 23285FP  26070.40776620  .00000000  00000+0  00000-0 0  9995
2 55766  30.0000  15.0000 0000000   0.0000 151.6667 13.30467610    14
GUOWANG_L_00004003-17
1 55767U 22456JN  26070.40776620  .00000000  00000+0  00000-0 0  9995
2 55767  30.0000  15.0000 0000000   0.0000 161.6667 13.30467610    16
GUOWANG_L_00004003-18
1 55768U 24839VJ  26070.40776620  .00000000  00000+0  00000-0 0  9993
2 55768  30.0000  15.0000 0000000   0.0000 171.6667 13.30467610    18
GUOWANG_L_00004003-19
1 55769U 24991YS  26070.40776620  .00000000  00000+0  00000-0 0  9993
2 55769  30.0000  15.0000 0000000   0.0000 181.6667 13.30467610    10
GUOWANG_L_00004003-20
1 55770U 25237AY  26070.40776620  .00000000  00000+0  00000-0 0  9999
2 55770  30.0000  15.0000 0000000   0.0000 191.6667 13.30467610    13
GUOWANG_L_00004003-21
1 55771U 26851NL  26070.40776620  .00000000  00000+0  00000-0 0  9993
2 55771  30.0000  15.0000 0000000   0.0000 201.6667 13.30467610    16
GUOWANG_L_00004003-22
1 55772U 26772KZ  26070.40776620  .00000000  00000+0  00000-0 0  9996
2 55772  30.0000  15.0000 0000000   0.0000 211.6667 13.30467610    18
GUOWANG_L_00004003-23
1 55773U 25188Q   26070.40776620  .00000000  00000+0  00000-0 0  9997
2 55773  30.0000  15.0000 0000000   0.0000 221.6667 13.30467610    10
GUOWANG_L_00004003-24
1 55774U 26706DH  26070.40776620  .00000000  00000+0  00000-0 0  9995
2 55774  30.0000  15.0000 0000000   0.0000 231.6667 13.30467610    12
GUOWANG_L_00004003-25
1 55775U 26069IU  26070.40776620  .00000000  00000+0  00000-0 0  9998
2 55775  30.0000  15.0000 0000000   0.0000 241.6667 13.30467610    14
GUOWANG_L_00004003-26
1 55776U 26438I   26070.40776620  .00000000  00000+0  00000-0 0  9999
2 55776  30.0000  15.0000 0000000   0.0000 251.6667 13.30467610    16
GUOWANG_L_00004003-27
1 55777U 24487TA  26070.40776620  .00000000  00000+0  00000-0 0  9992
2 55777  30.0000  15.0000 0000000   0.0000 261.6667 13.30467610    18
GUOWANG_L_00004003-28
1 55778U 26700JE  26070.40776620  .00000000  00000+0  00000-0 0  9993
2 55778  30.0000  15.0000 0000000   0.0000 271.6667 13.30467610    10
GUOWANG_L_00004003-29
1 55779U 24445D   26070.40776620  .00000000  00000+0  00000-0 0  9998
2 55779  30.0000  15.0000 0000000   0.0000 281.6667 13.30467610    12
GUOWANG_L_00004003-30
1 55780U 26505LD  26070.40776620  .00000000  00000+0  00000-0 0  9999
2 55780  30.0000  15.0000 0000000   0.0000 291.6667 13.30467610    15
GUOWANG_L_00004003-31
1 55781U 26442LR  26070.40776620  .00000000  00000+0  00000-0 0  9990
2 55781  30.0000  15.0000 0000000   0.0000 301.6667 13.30467610    18
GUOWANG_L_00004003-32
1 55782U 25029EX  26070.40776620  .00000000  00000+0  00000-0 0  9991
2 55782  30.0000  15.0000 0000000   0.0000 311.6667 13.30467610    10
GUOWANG_L_00004003-33
1 55783U 26896M   26070.40776620  .00000000  00000+0  00000-0 0  9995
2 55783  30.0000  15.0000 0000000   0.0000 321.6667 13.30467610    12
GUOWANG_L_00004003-34
1 55784U 25964FC  26070.40776620  .00000000  00000+0  00000-0 0  9991
2 55784  30.0000  15.0000 0000000   0.0000 331.6667 13.30467610    14
GUOWANG_L_00004003-35
1 55785U 23155YM  26070.40776620  .00000000  00000+0  00000-0 0  9992
2 55785  30.0000  15.0000 0000000   0.0000 341.6667 13.30467610    16
GUOWANG_L_00004003-36
1 55786U 24199NW  26070.40776620  .00000000  00000+0  00000-0 0  9992
2 55786  30.0000  15.0000 0000000   0.0000 351.6667 13.30467610    18
GUOWANG_L_00004004-01
1 55787U 23510NI  26070.40776620  .00000000  00000+0  00000-0 0  9999
2 55787  30.0000  22.5000 0000000   0.0000   2.5000 13.30467610    15
GUOWANG_L_00004004-02
1 55788U 25643TW  26070.40776620  .00000000  00000+0  00000-0 0  9999
2 55788  30.0000  22.5000 0000000   0.0000  12.5000 13.30467610    17
GUOWANG_L_00004004-03
1 55789U 24963KH  26070.40776620  .00000000  00000+0  00000-0 0  9994
2 55789  30.0000  22.5000 0000000   0.0000  22.5000 13.30467610    19
GUOWANG_L_00004004-04
1 55790U 23262YM  26070.40776620  .00000000  00000+0  00000-0 0  9997
2 55790  30.0000  22.5000 0000000   0.0000  32.5000 13.30467610    12
GUOWANG_L_00004004-05
1 55791U 25417KV  26070.40776620  .00000000  00000+0  00000-0 0  9992
2 55791  30.0000  22.5000 0000000   0.0000  42.5000 13.30467610    14
GUOWANG_L_00004004-06
1 55792U 23354KY  26070.40776620  .00000000  00000+0  00000-0 0  9991
2 55792  30.0000  22.5000 0000000   0.0000  52.5000 13.30467610    16
GUOWANG_L_00004004-07
1 55793U 24244EF  26070.40776620  .00000000  00000+0  00000-0 0  9991
2 55793  30.0000  22.5000 0000000   0.0000  62.5000 13.30467610    18
GUOWANG_L_00004004-08
1 55794U 26232YN  26070.40776620  .00000000  00000+0  00000-0 0  9991
2 55794  30.0000  22.5000 0000000   0.0000  72.5000 13.30467610    10
GUOWANG_L_00004004-09
1 55795U 24084QN  26070.40776620  .00000000  00000+0  00000-0 0  9995
2 55795  30.0000  22.5000 0000000   0.0000  82.5000 13.30467610    12
GUOWANG_L_00004004-10
1 55796U 26854OJ  26070.40776620  .00000000  00000+0  00000-0 0  9993
2 55796  30.0000  22.5000 0000000   0.0000  92.5000 13.30467610    14
GUOWANG_L_00004004-11
1 55797U 24032AS  26070.40776620  .00000000  00000+0  00000-0 0  9990
2 55797  30.0000  22.5000 0000000   0.0000 102.5000 13.30467610    17
GUOWANG_L_00004004-12
1 55798U 25285OY  26070.40776620  .00000000  00000+0  00000-0 0  9992
2 55798  30.0000  22.5000 0000000   0.0000 112.5000 13.30467610    19
GUOWANG_L_00004004-13
1 55799U 25193GN  26070.40776620  .00000000  00000+0  00000-0 0  9991
2 55799  30.0000  22.5000 0000000   0.0000 122.5000 13.30467610    11
GUOWANG_L_00004004-14
1 55800U 25147FO  26070.40776620  .00000000  00000+0  00000-0 0  9993
2 55800  30.0000  22.5000 0000000   0.0000 132.5000 13.30467610    15
